C/2020 H8 (PANSTARRS),e,99.7062,68.4436,128.8803,598.3987,0.0000673,0.99219700,0.0000,06/04.6315/2020,2000,g 10.5,4.0
# From MPEC 2022-ED3
A/2020 H9,e,137.8774,213.1668,312.7217,356.6179,0.0001464,0.99280322,0.0000,12/21.9190/2019,2000,g 18.0,2.0
# From MPEC 2023-HN7
C/2020 H11 (PANSTARRS-Lemmon),h,09/13.7898/2020,151.3840,303.0516,91.4069,1.001014,7.622775,2000,8.5,4.0
# From MPEC 2023-KD6
C/2020 J1 (SONEAR),h,04/18.4313/2021,142.3059,226.6071,341.6577,1.000234,3.348336,2000,8.5,3.2
# From MPEC 2024-PC5
C/2020 K1 (PANSTARRS),e,89.6725,94.3644,213.9785,5119,0.0000027,0.99939958,0.0000,05/09.0076/2023,2000,g  5.5,4.0
# From MPEC 2021-N06
C/2020 K2 (PANSTARRS),h,08/05.5822/2020,91.0002,288.4215,67.3361,1.002255,8.880496,2000,10.8,4.0
# From MPEC 2020-KF9
C/2020 K3 (Leonard),p,06/01.0032/2020,129.0152,64.4924,1.583069,28.3546,2000,14.5,4.0
# From MPEC 2020-L06
C/2020 K4 (PANSTARRS),e,125.5852,264.2628,308.8429,23.96057,0.0084035,0.92700463,13.6258,08/12.0/2024,2000,g 16.5,4.0
# From MPEC 2021-R75
C/2020 K5 (PANSTARRS),h,06/04.9333/2021,67.0772,86.1463,249.6325,1.001065,1.538840,2000,11.0,4.0
# From MPEC 2023-N01
C/2020 K6 (Rankin),h,09/15.4429/2021,103.6396,291.5854,44.3163,1.003059,5.867740,2000,8.0,4.0
# From MPEC 2023-A50
C/2020 K7 (PANSTARRS),e,32.0445,286.1158,358.1709,96.13779,0.0010456,0.93350150,1.8313,08/12.0/2024,2000,g  8.0,4.0
# From MPEC 2021-P47
C/2020 K8 (Catalina-ATLAS),h,09/15.3651/2020,31.4240,181.4393,260.0232,1.000263,0.470990,2000,15.0,3.2
# From MPEC 2021-BE3
P/2020 K9 (Lemmon-PANSTARRS),e,23.1992,166.3142,197.0845,4.205689,0.1142742,0.32065126,145.9163,08/12.0/2024,2000,g 12.5,4.0
# From MPEC 2023-C45
P/2020 M1 (PANSTARRS),e,8.5335,142.6035,72.5750,5.314550,0.0804460,0.47308514,136.2279,08/12.0/2024,2000,g 14.5,4.0
# From MPEC 2022-H30
C/2020 M3 (ATLAS),e,23.4720,71.1683,328.6163,27.24547,0.0069305,0.95333422,9.6057,08/12.0/2024,2000,g 14.5,4.0
# From MPEC 2023-N01
A/2020 M4,h,11/23.5868/2020,160.1138,348.6219,104.5536,1.000599,5.945069,2000,14.5,2.0
# From MPEC 2024-NE4
P/2020 MK4 (PANSTARRS),e,6.7849,0.6883,93.6710,6.219603,0.0635419,0.01394584,297.5800,08/12.0/2024,2000,g  8.0,4.0
# From MPEC 2023-FK0
C/2020 M5 (ATLAS),h,08/19.8505/2021,93.1950,352.0593,126.2581,1.000243,3.000272,2000,9.0,4.0
# From MPEC 2022-GA9
C/2020 N1 (PANSTARRS),h,03/12.7948/2021,29.7503,279.8760,186.7951,1.000679,1.317002,2000,12.5,4.0
# From MPEC 2021-P47
C/2020 N2 (ATLAS),e,161.0386,257.1795,331.2724,102.5667,0.0009488,0.98256505,0.0000,08/24.2524/2020,2000,g 16.0,3.2
# From MPEC 2024-JU4
C/2020 O2 (Amaral),h,08/27.8692/2021,71.7619,256.7919,10.2378,1.000422,4.860082,2000,8.0,3.2
# From MPEC 2023-C45
P/2020 O3 (PANSTARRS),e,8.4446,266.8189,81.4325,4.646705,0.0983980,0.10257226,127.1640,08/12.0/2024,2000,g 12.0,4.0
# From MPEC 2021-BE3
C/2020 P1 (NEOWISE),h,10/20.9178/2020,45.1659,53.4762,8.9087,1.000393,0.340864,2000,14.0,3.2
# From MPEC 2024-JU4
C/2020 P3 (ATLAS),h,04/22.3178/2021,61.8776,19.4742,82.3168,1.003030,6.813935,2000,6.0,4.0
# From MPEC 2022-PB4
C/2020 PV6 (PANSTARRS),e,128.1865,329.1417,71.3282,41.90908,0.0036328,0.94529894,3.8177,08/12.0/2024,2000,g 10.0,4.0
# From MPEC 2022-L66
C/2020 Q1 (Borisov),e,142.9433,52.3969,9.9976,61.87197,0.0020252,0.97867946,0.0000,08/14.8366/2020,2000,g 14.0,4.0
# From MPEC 2023-CD7
C/2020 Q2 (PANSTARRS),e,3.3353,179.8183,118.2802,10.61678,0.0284915,0.48967538,47.2708,08/12.0/2024,2000,g 12.0,3.2
# From MPEC 2024-F34
C/2020 R2 (PANSTARRS),e,53.2254,195.1058,211.8560,428.0152,0.0001113,0.98902792,0.0000,02/25.3041/2022,2000,g  9.0,4.0
# From MPEC 2022-K19
C/2020 R4 (ATLAS),e,164.4246,323.2536,46.5879,98.72512,0.0010048,0.98963707,0.0000,03/02.3823/2021,2000,g 13.5,4.0
# From MPEC 2023-C45
P/2020 R5 (PANSTARRS),e,11.4403,272.9464,82.7472,4.991276,0.0883867,0.31372081,135.7735,08/12.0/2024,2000,g  9.5,6.0
# From MPEC 2021-Y10
C/2020 R6 (Rankin),e,82.8451,12.1997,272.0013,297.1460,0.0001924,0.98943943,0.0000,09/07.3834/2019,2000,g 11.0,4.0
# From MPEC 2024-PC5
C/2020 R7 (ATLAS),h,09/16.1738/2022,114.9031,268.3033,347.8126,1.000049,2.954463,2000,7.0,3.2
# From MPEC 2021-BE3
P/2020 S1 (PANSTARRS),e,13.7196,129.5075,255.0953,5.999100,0.0670772,0.50738136,87.3660,08/12.0/2024,2000,g 14.0,4.0
# From MPEC 2022-ST7
C/2020 S2 (PANSTARRS),e,22.3945,197.7000,202.3808,10.24250,0.0300673,0.82814947,39.9503,08/12.0/2024,2000,g 17.0,4.0
# From MPEC 2024-JU4
C/2020 S3 (Erasmus),e,20.0294,222.5774,350.0545,144.1240,0.0005696,0.99726103,0.0000,12/11.5004/2020,2000,g 13.5,3.2
# From MPEC 2024-N80
C/2020 S4 (PANSTARRS),h,02/09.3482/2023,20.5679,117.6988,21.0184,1.002188,3.369806,2000,8.5,3.2
# From MPEC 2021-BE3
P/2020 S5 (PANSTARRS),e,12.3427,316.0419,53.2587,4.056872,0.1206194,0.33785691,176.6045,08/12.0/2024,2000,g 14.5,4.0
# From MPEC 2021-BE3
P/2020 S7 (PANSTARRS),e,16.0777,328.0914,40.6307,5.034755,0.0872442,0.41007845,118.8722,08/12.0/2024,2000,g 14.5,4.0
# From MPEC 2021-P47
C/2020 S8 (Lemmon),e,108.5311,24.0498,160.1840,247.0491,0.0002538,0.99045719,0.0000,04/10.6118/2021,2000,g 12.5,4.0
# From MPEC 2022-TD3
C/2020 T2 (Palomar),e,27.8377,83.0555,150.4011,281.8918,0.0002082,0.99270450,0.0000,07/10.6228/2021,2000,g 11.0,3.2
# From MPEC 2021-N06
P/2020 T3 (PANSTARRS),e,7.2991,73.9932,357.0574,3.516485,0.1494655,0.59243480,194.0661,08/12.0/2024,2000,g 18.0,3.2
# From MPEC 2021-N06
C/2020 T4 (PANSTARRS),h,07/05.6922/2021,83.8508,50.6191,79.5835,1.000476,2.189538,2000,13.0,3.2
# From MPEC 2021-BE3
C/2020 T5 (Lemmon),e,66.5444,237.8284,90.3714,655.0887,0.0000588,0.99710710,0.0000,10/08.5100/2020,2000,g 16.0,4.0
# From MPEC 2021-N06
P/2020 U2 (PANSTARRS),e,6.4196,342.8539,84.7081,3.777944,0.1342211,0.51139437,177.7302,08/12.0/2024,2000,g 18.0,4.0
# From MPEC 2021-W31
C/2020 U3 (Rankin),e,30.1427,282.6278,124.4277,67.37258,0.0017823,0.96614217,2.2862,08/12.0/2024,2000,g 15.0,4.0
# From MPEC 2024-P23
C/2020 U4 (PANSTARRS),h,04/09.7475/2022,167.0112,120.3815,70.1284,1.000834,5.360843,2000,7.0,4.0
# From MPEC 2024-GJ3
C/2020 U5 (PANSTARRS),e,97.2968,107.3152,75.4542,4953,0.0000028,0.99924153,0.0000,04/28.1075/2022,2000,g  8.0,4.0
# From MPEC 2024-PC5
C/2020 V2 (ZTF),h,05/08.4683/2023,131.6127,212.3757,162.4101,1.000792,2.228090,2000,4.9,4.0
# From MPEC 2023-D72
P/2020 V3 (PANSTARRS),e,23.0290,198.2603,249.6131,8.399879,0.0404850,0.25776027,51.6554,08/12.0/2024,2000,g  8.3,4.0
# From MPEC 2024-F34
P/2020 V4 (Rankin),e,14.2423,203.4860,257.1446,9.386856,0.0342708,0.45131395,38.3615,08/12.0/2024,2000,g  9.0,4.0
# From MPEC 2021-BE3
P/2020 W1 (Rankin),e,10.7800,124.3921,265.2890,7.222792,0.0507746,0.26602062,80.4500,08/12.0/2024,2000,g 10.0,4.0
# From MPEC 2021-BE3
C/2020 W5 (Lemmon),h,11/30.5690/2020,88.6163,75.4669,24.5525,1.001671,3.367885,2000,15.0,4.0
# From MPEC 2024-PC5
P/2020 WJ5 (Lemmon),e,22.2891,177.7887,338.0564,6.015268,0.0668069,0.17180686,76.0963,08/12.0/2024,2000,g  8.5,4.0
# From MPEC 2024-F34
P/2020 X1 (ATLAS),e,31.6959,55.9808,323.5071,4.534223,0.1020821,0.36495498,151.4237,08/12.0/2024,2000,g 13.0,4.0
# From MPEC 2024-A43
C/2020 X2 (ATLAS),e,18.1852,105.3754,347.4812,16.50705,0.0146960,0.76806049,20.0484,08/12.0/2024,2000,g 10.6,4.0
# From MPEC 2021-S45
C/2020 X4 (Leonard),e,80.6389,161.9244,140.3158,40.68833,0.0037975,0.87159221,5.1845,08/12.0/2024,2000,g  9.0,4.0
# From MPEC 2024-PC5
C/2020 Y2 (ATLAS),e,101.1882,26.5335,266.4133,1592,0.0000155,0.99802491,0.0000,06/18.1348/2022,2000,g  6.5,4.0
# From MPEC 2021-R75
C/2020 Y3 (ATLAS),e,83.1162,191.4014,341.8755,138.7188,0.0006033,0.98563880,0.0000,12/03.2441/2020,2000,g 13.5,4.0
# From MPEC 2023-CD7
C/2021 A1 (Leonard),h,01/03.4679/2022,132.7550,255.9121,225.1463,1.000150,0.616116,2000,8.5,4.0
# From MPEC 2022-F14
C/2021 A2 (NEOWISE),e,107.0252,125.1147,338.7715,228.3382,0.0002857,0.99380995,0.0000,01/22.1177/2021,2000,g 13.5,4.0
# From MPEC 2022-ED3
C/2021 A4 (NEOWISE),e,111.5917,307.0985,204.7301,42.39985,0.0035699,0.97289883,0.0000,03/19.5116/2021,2000,g 16.0,4.0
# From MPEC 2021-BE3
P/2021 A5 (PANSTARRS),e,18.1863,328.8168,61.4282,3.047235,0.1852871,0.13991082,253.3042,08/12.0/2024,2000,g 15.0,4.0
# From MPEC 2024-P23
C/2021 A6 (PANSTARRS),e,75.5795,164.0508,351.6092,9255,0.0000011,0.99914383,0.0000,05/02.8701/2021,2000,g  7.0,4.0
# From MPEC 2022-M88
C/2021 A7 (NEOWISE),e,78.1830,154.4500,355.9848,1817,0.0000127,0.99891880,0.0000,07/15.1282/2021,2000,g 10.0,4.0
# From MPEC 2024-GJ3
C/2021 A9 (PANSTARRS),h,12/02.6922/2023,158.0132,314.8343,211.5233,1.000982,7.760618,2000,6.0,4.0
# From MPEC 2021-N06
C/2021 A10 (NEOWISE),e,151.9663,188.7755,82.5449,89.37712,0.0011664,0.98585524,0.0000,03/14.9076/2021,2000,g 19.0,4.0
# From MPEC 2022-L66
C/2021 B2 (PANSTARRS),e,38.0832,120.4766,335.0400,388.6465,0.0001286,0.99353567,0.0000,05/04.6898/2021,2000,g 14.0,4.0
# From MPEC 2021-N06
C/2021 B3 (NEOWISE),e,119.4738,67.2719,293.5510,34.24445,0.0049183,0.93680471,6.1536,08/12.0/2024,2000,g 13.5,4.0
# From MPEC 2023-KD6
C/2021 C1 (Rankin),e,143.0427,186.8662,336.1250,2687,0.0000071,0.99870749,0.0000,12/06.3876/2020,2000,g 11.5,4.0
# From MPEC 2021-U31
P/2021 C2 (PANSTARRS),e,21.9408,66.4561,78.6969,9.539305,0.0334525,0.48795601,42.3213,08/12.0/2024,2000,g 12.0,4.0
# From MPEC 2024-M41
C/2021 C3 (Catalina),e,122.1807,181.8948,357.0045,60.83852,0.0020770,0.96263455,2.6532,08/12.0/2024,2000,g 14.0,4.0
# From MPEC 2022-M88
C/2021 C4 (ATLAS),e,132.8432,194.2587,320.0972,7611,0.0000015,0.99940922,0.0000,01/16.6467/2021,2000,g  9.0,4.0
# From MPEC 2024-N80
C/2021 C5 (PANSTARRS),e,50.7938,323.6730,270.9116,1758,0.0000134,0.99815640,0.0000,02/10.9866/2023,2000,g  9.0,4.0
# From MPEC 2022-YB4
C/2021 C6 (Lemmon),e,164.6046,332.3444,203.8214,3085,0.0000058,0.99893682,0.0000,11/12.2866/2021,2000,g 12.0,4.0
# From MPEC 2022-F14
C/2021 D1 (SWAN),e,31.3894,311.2213,72.3577,101.7740,0.0009600,0.99110576,0.0000,02/27.6777/2021,2000,g 13.0,4.0
# From MPEC 2023-J29
C/2021 D2 (ZTF),h,02/03.8766/2022,83.7871,305.6517,125.0386,1.001540,2.947157,2000,9.0,4.0
# From MPEC 2022-UY9
